{
  "norad_id": 64062,
  "name": "CHINASAT 3B",
  "history": [
    {
      "epoch": "2026-03-28T02:54:38.527200Z",
      "apogee_km": 35792.864561519185,
      "perigee_km": 35781.10302272543,
      "latitude_deg": -0.013819169480606734,
      "longitude_deg": 167.32776177808915,
      "height_km": 35782.40088222555,
      "semi_major_axis_km": 42165.12079212231,
      "eccentricity": 0.00013947,
      "inclination_deg": 0.0423,
      "raan_deg": 0.845,
      "arg_perigee_deg": 349.2474,
      "mean_anomaly_deg": 46.4072,
      "mean_motion_rev_day": 1.00270398
    }
  ]
}